HYLAS 4                 
1 43272U 18033B   20321.72739612 -.00000233  00000-0  00000-0 0  9997
2 43272   0.0634 113.4854 0003848  73.9568  97.2064  1.00270270  9646
IRNSS-1I                
1 43286U 18035A   20322.48730120  .00000107  00000-0  00000+0 0  9991
2 43286  28.6510 106.8627 0020840 179.4311   1.1498  1.00270952  9634
USA 283                 
1 43339U 18036A   20322.60474115 -.00000319  00000-0  00000+0 0  9990
2 43339   0.0255 319.9939 0000248 298.7270 150.2229  1.00270825  4884
COSMOS 2526             
1 43432U 18037A   20321.75958622 -.00000345  00000-0  00000+0 0  9999
2 43432   0.0047 113.8271 0000742 236.8529 107.1624  1.00272789  9523
APSTAR 6C               
1 43450U 18041A   20321.91091200 -.00000318  00000-0  00000+0 0  9992
2 43450   0.0160 272.2501 0002659 344.1414 261.9956  1.00270302  9403
BANGABANDHUSAT-1        
1 43463U 18044A   20321.76160639 -.00000363  00000-0  00000-0 0  9996
2 43463   0.0171 283.2654 0002242 316.7469 209.5707  1.00271968  9279
SES-12                  
1 43488U 18049A   20321.75295626 -.00000270  00000-0  00000+0 0  9998
2 43488   0.0533  87.8401 0001998 172.6154 161.9028  1.00269610  8988
FENGYUN 2H              
1 43491U 18050A   20321.91091024 -.00000127  00000-0  00000-0 0  9990
2 43491   0.3017 264.4431 0002811 236.3517 322.5344  1.00275451  9071
BEIDOU IGSO-7           
1 43539U 18057A   20321.83217091 -.00000072  00000-0  00000-0 0  9994
2 43539  55.0461 180.8741 0030962 213.4502  76.6944  1.00279014  8719
TELSTAR 19V             
1 43562U 18059A   20322.43924199 -.00000281  00000-0  00000+0 0  9994
2 43562   0.0287 269.1413 0002735 267.3942 335.5246  1.00271014  8737
TELKOM 4 (MERAH PUTIH)  
1 43587U 18064A   20321.73902294 -.00000344  00000-0  00000+0 0  9991
2 43587   0.0194 298.7672 0001110 308.3014 183.2500  1.00270706  8422
TELSTAR 18V (APSTAR 5C) 
1 43611U 18069A   20321.73261084 -.00000294  00000-0  00000+0 0  9993
2 43611   0.0173 303.3630 0001793 279.5280 235.1243  1.00271078  8171
AZERSPACE 2 (IS-38)     
1 43632U 18074A   20322.49285576  .00000135  00000-0  00000+0 0  9991
2 43632   0.0252 282.1683 0001148 306.6231  50.7372  1.00268221  8064
HORIZONS 3E             
1 43633U 18074B   20322.49202437 -.00000033  00000-0  00000+0 0  9995
2 43633   0.0036  48.1869 0000383 313.5659  41.3967  1.00266499  7893
AEHF-4 (USA 288)        
1 43651U 18079A   20321.70410410  .00000126  00000-0  00000+0 0  9997
2 43651   3.5711 311.4431 0004463 249.7616 318.4628  1.00273901  7841
BEIDOU-3 G1             
1 43683U 18085A   20321.91091200 -.00000279  00000-0  00000-0 0  9995
2 43683   1.4485 247.4606 0004945   3.0155 273.8670  1.00266976  7628
GSAT-29                 
1 43698U 18089A   20321.78521564  .00000084  00000-0  00000+0 0  9993
2 43698   0.0962 100.0653 0003090 129.1992 164.8175  1.00272472  7384
ES'HAIL 2               
1 43700U 18090A   20321.73917299  .00000144  00000-0  00000+0 0  9995
2 43700   0.0148 281.9787 0001500 333.1743  93.0315  1.00271833  7486
GEO-KOMPSAT-2A          
1 43823U 18100A   20321.75958622 -.00000344  00000-0  00000+0 0  9993
2 43823   0.0271 280.5086 0001861 330.5468 206.9407  1.00271283  7229
GSAT-11                 
1 43824U 18100B   20321.77271434 -.00000078  00000-0  00000+0 0  9999
2 43824   0.0134 266.8998 0005578 223.4270 278.1729  1.00271794  7198
GSAT-7A                 
1 43864U 18105A   20321.78521564  .00000026  00000-0  00000+0 0  9993
2 43864   0.0334 278.8073 0002661 299.6250 183.3803  1.00270577  7024
COSMOS 2533             
1 43867U 18107A   20321.74798381 -.00000039  00000-0  00000+0 0  9992
2 43867   0.0097  43.5396 0000759 326.2839  25.7574  1.00268823  6994
TJS-3                   
1 43874U 18110A   20322.70964035 -.00000355  00000-0  00000+0 0  9993
2 43874   0.0495  75.2000 0000945 292.0825  56.2119  1.00271959  7056
TJS-3 AKM               
1 43917U 18110C   20321.74979993  .00000057  00000-0  00000-0 0  9992
2 43917   0.2639 107.1290 0001941  87.4476 190.6145  1.00271057  6901
CHINASAT 2D (ZX 2D)     
1 43920U 19001A   20321.75993515 -.00000338  00000-0  00000-0 0  9996
2 43920   0.0452  74.8411 0001486 358.7500  26.2956  1.00269074 33648
HELLAS-SAT 4 & SGS-1    
1 44034U 19007A   20321.74179006  .00000152  00000-0  00000+0 0  9991
2 44034   0.0669 120.8135 0005289  48.7777 192.7337  1.00271177  6905
GSAT-31                 
1 44035U 19007B   20321.72132796  .00000125  00000-0  00000+0 0  9995
2 44035   0.0150 332.6369 0004620 272.4310 118.7692  1.00273285  6533
NUSANTARA SATU          
1 44048U 19009A   20322.47392463 -.00000236  00000-0  00000+0 0  9997
2 44048   0.0156 319.2771 0001796 268.9847 145.3700  1.00270523  6344
CHINASAT 6C (ZX 6C)     
1 44067U 19012A   20321.75993515 -.00000337  00000-0  00000+0 0  9999
2 44067   0.0343 243.7897 0002996   4.6979 211.4045  1.00272455  6283
WGS 10 (USA 291)        
1 44071U 19014A   20321.78521564  .00000046  00000-0  00000-0 0  9997
2 44071   0.1218  96.8129 0000870 115.2888 187.1818  1.00270070  6190
TIANLIAN 2-01           
1 44076U 19017A   20322.46785542 -.00000137  00000-0  00000+0 0  9990
2 44076   1.6473 284.9361 0032149 222.2998 158.1701  1.00269453  6188
ARABSAT-6A              
1 44186U 19021A   20321.74013257  .00000153  00000-0  00000+0 0  9991
2 44186   0.0420 327.2271 0005395 284.7181 101.2963  1.00269528  5749
BEIDOU-3 IGSO-1         
1 44204U 19023A   20321.12323789 -.00000232  00000-0  00000+0 0  9999
2 44204  55.7122  59.2507 0018051 194.6442 315.8763  1.00295855  5914
BEIDOU-2 G8             
1 44231U 19027A   20321.78263049 -.00000248  00000-0  00000+0 0  9994
2 44231   0.6474 304.1582 0007989 272.1494 266.3161  1.00269192  5642
YAMAL 601               
1 44307U 19031A   20321.72132796  .00000119  00000-0  00000-0 0  9998
2 44307   0.0154 336.1745 0001615 263.4381 125.3216  1.00272136  5501
AT&T T-16               
1 44333U 19034A   20321.57037126 -.00000115  00000-0  00000+0 0  9990
2 44333   0.0130 291.0915 0000628 153.6881  75.8198  1.00270050  5196
EUTELSAT 7C             
1 44334U 19034B   20321.73542184  .00000048  00000-0  00000+0 0  9998
2 44334   0.0131 277.1577 0002949 297.7170 113.1410  1.00271388  5688
BEIDOU-3 IGSO-2         
1 44337U 19035A   20321.53975140 -.00000050  00000-0  00000+0 0  9996
2 44337  55.0667 176.9183 0016786 182.3399 356.1351  1.00294147  5254
COSMOS 2539             
1 44457U 19048A   20322.42896559  .00000079  00000-0  00000+0 0  9998
2 44457   0.0425 108.1232 0000660 281.9250 193.3363  1.00269535  4792
EDRS-C                  
1 44475U 19049A   20320.75980937  .00000156  00000-0  00000-0 0  9994
2 44475   0.0388 289.0546 0000877 309.2131 121.7531  1.00272904  4740
INTELSAT 39 (IS-39)     
1 44476U 19049B   20321.78521564  .00000033  00000-0  00000+0 0  9999
2 44476   0.0164 296.0181 0000699 157.3624 307.5709  1.00270112  4714
AMOS-17                 
1 44479U 19050A   20321.73742826  .00000109  00000-0  00000+0 0  9999
2 44479   0.0176 301.0882 0001977 287.8709 109.7867  1.00272345  4748
AEHF-5 (USA 292)        
1 44481U 19051A   20321.56229877  .00000078  00000-0  00000-0 0  9996
2 44481   5.6536 307.2781 0003488 283.5654  82.3280  1.00277349  4833
EUTELSAT 5 WEST B       
1 44624U 19067A   20321.73306646 -.00000042  00000-0  00000-0 0  9993
2 44624   0.0598  14.5059 0002632 166.9220 133.7593  1.00271151  4011
TJS-4                   
1 44637U 19070A   20321.77271434 -.00000170  00000-0  00000-0 0  9993
2 44637   0.0163 302.3202 0001683 278.5873 196.9322  1.00275562  4123
BEIDOU-3 IGSO-3         
1 44709U 19073A   20321.39616091 -.00000187  00000-0  00000+0 0  9993
2 44709  58.1723 302.3442 0020941 198.4623 165.0916  1.00285952  4014
TIBA-1                  
1 44800U 19080A   20321.74109216  .00000155  00000-0  00000-0 0  9993
2 44800   0.0609 337.7429 0001816 240.8148 140.0183  1.00270806  3612
INMARSAT GX5            
1 44801U 19080B   20321.73620696  .00000074  00000-0  00000-0 0  9993
2 44801   0.0411  49.8590 0002188 188.9934  93.4473  1.00270023  3661
JCSAT-18 (KACIFIC 1)    
1 44868U 19091A   20322.51507465 -.00000203  00000-0  00000+0 0  9997
2 44868   0.0077 275.2217 0000372 357.7241 119.5035  1.00270167  3666
ELEKTRO-L 3             
1 44903U 19095A   20321.77271434 -.00000097  00000-0  00000+0 0  9993
2 44903   0.0681  52.5950 0000677 156.2463 201.6076  1.00271875  3275
SHIJIAN-20 (SJ-20)      
1 44910U 19097A   20322.70412300 -.00000357  00000-0  00000+0 0  9995
2 44910   0.4828  95.2027 0025350 179.4518 160.5429  1.00277430  3269
TJS-5                   
1 44978U 20002A   20321.76961834  .00000042  00000-0  00000-0 0  9994
2 44978   0.2880 281.7342 0001226 318.6269 271.4359  1.00270640  3267
GSAT-30                 
1 45026U 20005A   20321.77271434 -.00000165  00000-0  00000+0 0  9999
2 45026   0.0236 266.9436 0002350 222.1798 288.3636  1.00272299  3097
EUTELSAT KONNECT        
1 45027U 20005B   20322.37896490  .00000048  00000-0  00000+0 0  9991
2 45027   0.0394  85.0262 0000296 275.4275 200.1159  1.00270468  3894
JCSAT-17                
1 45245U 20013A   20321.42205451 -.00000323  00000-0  00000+0 0  9995
2 45245   6.7419 344.0424 0003050 240.2497 119.6042  1.00270991  2808
GEO-KOMPSAT-2B          
1 45246U 20013B   20319.46254778 -.00000341  00000-0  00000+0 0  9993
2 45246   0.0686 141.0509 0001873 141.2354  66.5072  1.00270587  2796
BEIDOU-3 G2             
1 45344U 20017A   20321.74999023 -.00000144  00000-0  00000+0 0  9990
2 45344   2.7289 331.2688 0001165 238.3015 196.7443  1.00272364  2838
AEHF-6 (USA 298)        
1 45465U 20022B   20321.49988455 -.00000166  00000-0  00000+0 0  9993
2 45465   7.2378 307.9038 0003028 307.4531 246.4454  1.00272492  2546
BEIDOU-3 G3             
1 45807U 20040A   20321.76160639 -.00000355  00000-0  00000+0 0  9999
2 45807   2.7751 298.5744 0008244   3.6669 138.7745  1.00274795  1646
